#aV2019 11  8  0  0  0.00000000     288 DD+AD WGS84 FIT  NGA
## 2078 432000.00000000   300.00000000 58795 0.0000000000000
+   32     1  2  3  4  5  6  7  8  9 10 11 12 13 14 15 16 17
+         18 19 20 21 22 23 24 25 26 27 28 29 30 31 32  0  0
+          0  0  0  0  0  0  0  0  0  0  0  0  0  0  0  0  0
+          0  0  0  0  0  0  0  0  0  0  0  0  0  0  0  0  0
+          0  0  0  0  0  0  0  0  0  0  0  0  0  0  0  0  0
++         2  2  2  2  2  2  2  2  2  2  2  2  2  2  2  2  2
++         2  2  2  2  2  2  2  2  2  2  2  2  2  2  2  0  0
++         0  0  0  0  0  0  0  0  0  0  0  0  0  0  0  0  0
++         0  0  0  0  0  0  0  0  0  0  0  0  0  0  0  0  0
++         0  0  0  0  0  0  0  0  0  0  0  0  0  0  0  0  0
%c cc cc ccc ccc cccc cccc cccc cccc ccccc ccccc ccccc ccccc
%c cc cc ccc ccc cccc cccc cccc cccc ccccc ccccc ccccc ccccc
%f  0.0000000  0.000000000  0.00000000000  0.000000000000000
%f  0.0000000  0.000000000  0.00000000000  0.000000000000000
%i    0    0    0    0      0      0      0      0         0
%i    0    0    0    0      0      0      0      0         0
/*      NGA, ST. LOUIS,MO.                                  
/*   EPHEMERIS COMPUTED FROM 2 DAYS OF DATA                 
/*   EPOCHA v5 SMOOTHER                                     
/*   G1762 IERS2010 SATAF SATAPC                            
*  2019 11  8 18  0  0.00000000
P  1 -13974.706652  19734.994496  10406.570850   -190.592424                    
V  1   2124.659991 -13626.886711  28456.122069     -0.127853                    
P  2  15104.545172   1183.643031 -21185.766738   -342.721937                    
V  2  -6650.142790  27624.990984  -3226.954383     -0.077115                    
P  3 -18769.541992  13333.431344 -13225.232096    -33.703005                    
V  3 -16823.515116   1269.215257  25354.399873     -0.056233                    
P  4   5815.888822  21892.468215 -13782.079378     -6.991633                    
V  4 -13042.953080 -12037.415179 -24533.437226     -0.038562                    
P  5  26060.173037  -2435.828787  -5225.177723     -3.215521                    
V  5  -5585.534055   4300.926919 -30471.925026     -0.004604                    
P  6   8610.591211  15884.563725 -19413.311424   -117.309629                    
V  6  -8671.810060  23165.490439  15098.149371     -0.121360                    
P  7  -4834.765363  25399.444349   5115.516298   -144.528227                    
V  7  -5133.888727   4839.124959 -31028.065651     -0.081338                    
P  8 -16434.782780   3112.689429  20716.180777    -12.681191                    
V  8 -17203.343043 -19699.360763 -10493.414155     -0.012555                    
P  9   1357.477886  19896.009282 -17589.678628    -78.221390                    
V  9 -16424.021266 -15133.539705 -18447.395950     -0.098271                    
P 10 -10271.665799 -12742.483822  21023.982698   -126.740254                    
V 10  25777.696306  -6155.175081   8671.004816     -0.149265                    
P 11  -9840.053695  18575.505859  15900.132350   -454.002569                    
V 11  -5678.909738 -20583.317872  19590.681930      0.111489                    
P 12  22842.644772  -9630.136106  -9516.195053    185.602653                    
V 12  11974.354850    402.662857  29147.708623     -0.039588                    
P 13  19063.956377   6846.505440  17097.106936    -34.040071                    
V 13  11160.971903  18907.059015 -19806.327534      0.022905                    
P 14 -18929.555105 -17569.496822  -6278.355119    -51.621651                    
V 14  -2992.905561  -8225.628745  30283.457170      0.021205                    
P 15  16218.633322  -5542.366435  20078.635852   -274.075404                    
V 15  18624.301655  18445.848752  -9421.779166      0.026931                    
P 16 -25833.985304  -1666.708992  -7089.609770    -91.196641                    
V 16   8359.692923  -2699.684395 -30229.975280     -0.037263                    
P 17  14324.401402  22126.420721   4007.226246    159.306168                    
V 17  -4342.635056  -2334.433315  31690.692098      0.070094                    
P 18 -15581.403643  13129.547716  16482.917073     98.795444                    
V 18   3683.471054 -21733.059231  20275.227772      0.026122                    
P 19  17670.578913  19411.330552  -4269.083822   -242.507189                    
V 19   1291.314739   5297.587501  31636.135044      0.052011                    
P 20    534.899760 -16469.856215  20696.466098    527.413903                    
V 20  25496.196438  -7860.957707  -7071.780751      0.000739                    
P 21    106.504452 -25434.447667   8782.347947    -89.268015                    
V 21   4987.523207  -9071.477842 -28761.104603      0.060117                    
P 22 -23342.996883  11175.851151  -5516.699157   -770.251552                    
V 22  -8113.543057  -1599.991013  30011.951365     -0.026944                    
P 23  -8592.476925  13140.577560 -21040.395429   -156.715290                    
V 23 -19397.044254 -19696.424162  -4691.766632      0.022341                    
P 24  14259.488721 -18350.300646  12358.928007     -4.608893                    
V 24  -1068.348876  16429.099049  25626.450008     -0.003940                    
P 25   9879.568322 -15576.090830 -19226.261997    -16.896077                    
V 25  23800.050119  -3586.287680  15559.767925     -0.004832                    
P 26 -20815.401444  -6316.870498 -15390.539200     79.816053                    
V 26  18426.675010  -6618.748598 -22030.798083      0.084101                    
P 27 -20759.108238  -8847.773455  14139.728630   -113.597350                    
V 27 -10882.806501 -14411.557315 -24496.730752     -0.119867                    
P 28   9731.740869  13320.849388  21399.135150    755.912786                    
V 28 -25502.715233   3597.230718   9750.574244     -0.015353                    
P 29    968.238378 -18851.480715 -18705.266935     49.547776                    
V 29  15425.874252  17938.972683 -17332.264620     -0.100129                    
P 30   3236.629359  21900.376992  14563.751145    -79.463803                    
V 30  -8949.128350  16490.630991 -23052.138131     -0.083720                    
P 31 -10227.112604 -13626.842558 -20274.189241     -1.849833                    
V 31   9874.629491 -23906.458380  11545.758860     -0.025731                    
P 32 -15917.618580 -21081.344611   3438.028408    118.522383                    
V 32   4946.556942   1282.189427  31185.272918      0.123057                    
EOF
